[{"OBJECT_NAME":"QIANFAN-20","OBJECT_ID":"2024-185B","EPOCH":"2026-03-09T23:23:01.518432","MEAN_MOTION":14.08938537,"ECCENTRICITY":0.00078766,"INCLINATION":88.976,"RA_OF_ASC_NODE":68.3354,"ARG_OF_PERICENTER":72.8404,"MEAN_ANOMALY":287.3642,"EPHEMERIS_TYPE":0,"CLASSIFICATION_TYPE":"U","NORAD_CAT_ID":61553,"ELEMENT_SET_NO":999,"REV_AT_EPOCH":8177,"BSTAR":0.00032795523,"MEAN_MOTION_DOT":5.81e-6,"MEAN_MOTION_DDOT":0},{"OBJECT_NAME":"SL-16 DEB","OBJECT_ID":"1992-093BX","EPOCH":"2026-03-09T19:54:17.001216","MEAN_MOTION":13.91746649,"ECCENTRICITY":0.01555031,"INCLINATION":70.8687,"RA_OF_ASC_NODE":333.8567,"ARG_OF_PERICENTER":50.4923,"MEAN_ANOMALY":15.9812,"EPHEMERIS_TYPE":0,"CLASSIFICATION_TYPE":"U","NORAD_CAT_ID":22382,"ELEMENT_SET_NO":999,"REV_AT_EPOCH":67568,"BSTAR":0.00068601006,"MEAN_MOTION_DOT":9.17e-6,"MEAN_MOTION_DDOT":0}]
